#dP2024  2 11  0  0  0.00000000      96 __u+U IGS20 FIT  IAC
## 2301      0.00000000   900.00000000 60351 0.0000000000000
+  129   C01C02C03C04C05C06C07C08C09C10C11C12C13C14C16C19C20
+        C21C22C23C24C25C26C27C28C29C30C32C33C34C35C36C37C38
+        C39C40C41C42C43C44C45C46C60E02E03E04E05E07E08E09E10
+        E11E12E13E14E15E18E19E21E24E25E26E27E30E31E33E34E36
+        G01G02G03G04G05G06G07G08G09G10G11G12G13G14G15G16G17
+        G18G19G20G21G22G23G24G25G26G27G28G29G30G31G32J02J03
+        J04J07R01R02R03R04R05R06R07R08R09R10R11R12R13R14R15
+        R16R17R18R19R20R21R22R23R24R26  0  0  0  0  0  0  0
++        17 17 17 17 16  9  9 10  9  9  9  9  9  9  9  7  7
++         7  7  7  7  7  7  7  7  7  7  7  7  8  7  7  7  8
++         8  8  7  8  8  8  7  7 17  4  4  4  4  5  4  4  5
++         4  5  4  5  4  4  5  4  4  4  4  4  5  5  5  4  4
++         4  4  4  4  4  3  4  4  4  4  4  4  5  4  4  4  4
++         4  4  4  4  4  4  4  3  4  4  4  4  4  4  4  8  9
++         9 17  7  6  6  6  6 15  6  6  6 15  6  6  8  6  6
++         6  6  6  8  8  6  6 15  6  9  0  0  0  0  0  0  0
%c M  cc GPS ccc cccc cccc cccc cccc ccccc ccccc ccccc ccccc
%c cc cc ccc ccc cccc cccc cccc cccc ccccc ccccc ccccc ccccc
%f  0.0000000  0.000000000  0.00000000000  0.000000000000000
%f  0.0000000  0.000000000  0.00000000000  0.000000000000000
%i    0    0    0    0      0      0      0      0         0
%i    0    0    0    0      0      0      0      0         0
/* INFORMATION & ANALYSIS CENTER (IAC)            RAPID DATA
/* S/V CLOCKS ARE ALIGNED TO GNSS TIME                      
/* G:C1WC2W R:C1PC2P E:C1XC5X C:C2IC6I J:C1CC2S             
/* PCV:IGS20_2290 OL/AL:FES2004  NONE     YN ORB:CoN CLK:CoN
*  2024 02 11 18  0  0.00000000
PC01 -34333.292229  24438.433644   1028.627558    884.381434
PC02   4322.440930  41942.584766   1337.823414    419.413617
PC03 -14836.947152  39477.811461   1190.487296    -36.870835
PC04 -39615.204428  14378.979545    674.446017    858.970474
PC05  21907.948338  36056.309111    977.591012   -706.855298
PC06 -16274.256471  38495.669744  -6638.201030    103.794348
PC07  -2899.324363  32696.829852 -26268.542649   -785.377616
PC08 -13458.828330  19814.334372  34646.403321     45.767749
PC09 -11266.661746  37959.737509 -14907.118497   -476.572587
PC10   4055.763155  35200.634606 -22119.244426     89.129922
PC11   6230.978745 -27201.809887    431.412648    405.469921
PC12  14966.380583 -16207.519010  17128.402387    772.356756
PC13  -3357.210704  21990.085323  35958.421507    416.458469
PC14  -1092.345127 -19039.556557 -20375.131868    168.329378
PC16 -17868.663672  38111.172311  -4342.103431   -333.947358
PC19  10221.321544  21523.691592  14535.753626   -927.794065
PC20  -6729.150202  14540.133336  22859.825909   -153.169344
PC21  21164.374809   1959.548615 -18051.724509   -962.333434
PC22  22291.464398  16548.245424  -2696.245157   -113.459219
PC23 -18400.527034  -8209.477760  19299.562513   -781.881839
PC24  19436.486717 -16126.276980  11877.156871    875.307283
PC25   -239.483905 -17000.869964  22115.964734    323.768020
PC26  26705.009638  -6678.286916  -4716.080419   -247.777165
PC27 -16539.150614   7102.289801 -21346.767712    269.773491
PC28 -13087.711886 -11927.543214 -21561.500976    205.164794
PC29   1613.454522  26725.136102   7875.906145    240.457343
PC30 -10849.369513  23563.787636 -10325.837528    -24.061059
PC32 -21252.870401  -1862.339967  18014.590395   -566.149165
PC33 -10315.941501 -21464.326109 -14552.611371   -948.045738
PC34  10056.078748 -24430.391116   8937.553861    367.162591
PC35  13552.375865  11588.344417  21464.745402    435.971016
PC36   -702.528970  17123.311135 -22009.388068    -18.594740
PC37 -26805.788883   5751.793258   5135.500159   -935.672334
PC38 -21561.961312  20794.821532  29663.336093    136.194743
PC39 -19657.342171  37340.358460   2777.385681     -7.087032
PC40  -6572.478669  28370.806281 -30387.010454    -56.060281
PC41 -22144.752110 -16884.776446   1963.888108   -889.571380
PC42   8188.409147 -13491.408934 -22969.157496   -455.403415
PC43  -1006.494854 -26977.499709  -7023.357769     60.042758
PC44  16383.247565  -7473.990554  21296.971937    381.510974
PC45  18568.658077   7993.726898 -19258.027705    -69.468225
PC46 -18685.685622  16324.641721 -12744.079225   -123.036770
PC60   7282.823826  41511.629935   1534.766672     -0.302336
PE02  17246.527062  16670.104500 -17370.467566    102.586934
PE03  12422.131078  26057.330463  -6532.745316    -93.170072
PE04 -18277.399888  -9527.975732  21252.293592   -324.975599
PE05   -594.405307  27150.847712  11781.869255   4719.094801
PE07  13549.777045 -11960.050549 -23436.665011   -103.251349
PE08  18139.278329  10304.419564 -20995.136375   -222.328685
PE09 -13481.772426  11783.625366  23571.501613   -332.506267
PE10 -23196.505167  10093.756851 -15371.793310   -601.183936
PE11 -22624.630164  18179.405791  -5872.169551   3251.987533
PE12 -20382.405954   1278.966485 -21433.528292   -902.081291
PE13  22746.980116 -17759.768322   6561.357579    -20.157037
PE14   5523.839538 -24857.371187  13461.270152     36.583769
PE15  20047.889355   -779.894916  21769.703806    -85.254224
PE18 -13833.182642  14373.960011 -19788.451016    315.407078
PE19 -11039.121954 -27099.415926   4456.730828   -634.195131
PE21   3421.796161 -16473.265545  24343.796787   -578.516630
PE24 -23269.942266   6430.092340 -17132.490948   -592.751558
PE25  -3858.927380  16375.123769 -24357.800925      0.751598
PE26  11540.932191 -24098.564961 -12721.416318    365.896595
PE27  23001.576522  -6693.118645  17389.024052   -272.234864
PE30  28728.806238   7170.316634     24.314275   -898.897634
PE31 -28777.564406  -6905.814904   -276.452113    -15.778684
PE33  -5139.671525 -16776.813887 -23831.070293      7.435077
PE34   5685.318635  16381.463760  23990.220587    -94.085226
PE36 -12108.492045  24089.797290  12240.501185   -184.559274
PG01   9787.755566 -21532.637368 -12083.213120    169.157709
PG02  14569.871677 -21790.955269  -2825.839133   -486.992373
PG03   7837.496320 -13144.588186 -21837.368576    186.755662
PG04   3422.940987 -22641.646955 -13323.573695    289.217569
PG05 -19848.659338   7513.861450  15851.652857   -161.435819
PG06 -16805.367618  -1799.770089 -20447.300129    410.964869
PG07  -2316.677054 -18109.511493  19616.568960    -59.566929
PG08   8722.776847 -16042.994819  19037.346604   -166.535026
PG09  -7199.566940 -25474.221319  -1819.248512     88.840396
PG10  22897.072865  11016.743554   8490.804543     -0.166870
PG11 -21499.747471   8502.510514 -13006.577657   -572.400337
PG12  -9263.676217  12889.806014 -21573.660699   -477.001266
PG13 -13810.461032   6576.809507  21486.052898    624.607166
PG14 -20093.071644 -13470.386327  11202.675532    323.112196
PG15  -6901.044086  17155.043650  18502.781457    126.670210
PG16  24092.572066   -550.305449  11331.371974   -364.830082
PG17 -12507.168967 -20549.296776 -10661.403271    717.304382
PG18   2465.774526  17130.433645  20107.112700   -553.362058
PG19 -15125.609972 -12797.663492 -18047.734281    439.279670
PG20 -26122.107010   1600.870252   4043.004231    387.878776
PG21  17130.713541 -19491.169159   2378.152446    135.288399
PG22 -23696.887574 -10938.717205   4413.252802     32.867029
PG23  13029.186552  14855.639692  17862.128823    154.078887
PG24 -14824.079241  21712.704450  -1908.265232   -430.063040
PG25   3480.220575  16178.101510 -21162.091002    488.276427
PG26  26514.144134   3576.333142    463.944456    191.263964
PG27  14866.643101  -2692.993200  21588.485654     -3.146396
PG28  15520.864066   4551.490188 -21086.568215   -127.743386
PG29   3761.884122  26057.594833  -3112.528107   -607.168839
PG30 -11930.885905 -10400.759378  21459.920302   -433.876017
PG31  20596.302047  -4320.818056 -16650.809119   -227.732944
PG32  15187.975104  17354.192653 -13157.481800   -611.069398
PJ02 -29354.882265  14600.200976 -21884.721965     -1.895757
PJ03 -25661.688903  32496.867339  -3185.381035     -0.220187
PJ04 -23818.164421  28046.664512  26428.500721     50.937100
PJ07 -25387.807615  33673.881308     34.346887     -0.009813
PR01  -5829.379625 -18641.648513 -16407.641563     76.915012
PR02 -15899.329862 -19899.850245   -141.781443    -22.462810
PR03 -17456.304309  -9397.933434  16064.160472     94.323717
PR04  -9225.374506   5631.749458  23137.381355    223.004903
PR05   3769.309305  17907.667818  17798.098029    126.753781
PR06  17108.288466  18909.097164  -1010.812157   -150.265586
PR07  17264.044067   8839.900063 -16552.926502     75.597879
PR08   9118.170658  -5915.342694 -23013.648671    -74.386198
PR09  13316.470873   7657.664376 -20326.500155    169.446135
PR10  23754.266307    285.785199  -9413.881468   -121.668717
PR11  22539.412837  -8201.356520   8664.904870     34.661494
PR12   6163.669871 -11692.198096  21836.393398     36.636484
PR13 -10912.478709  -8481.774868  21416.204257    -44.257039
PR14 -24418.907745    721.398333   7373.112679     26.058001
PR15 -21831.559760   8599.124154  -9998.043467     82.281396
PR16  -6461.130098  11591.594552 -21788.782475     23.203541
PR17 -11705.120183   1737.026036 -22581.493147     60.406754
PR18 -13292.404679  17282.081970 -13270.207061    126.879037
PR19  -9609.320813  23600.784637   1201.719605   -265.434899
PR20   2273.466212  16442.238495  19398.995000   -108.113386
PR21  11750.757816  -2022.066210  22555.627696    -76.184895
PR22  13863.625244 -17505.990879  12341.861692    107.617508
PR23   7333.085673 -23934.383562  -4878.453999   -111.637763
PR24  -3656.298733 -16003.456717 -19507.211888    -43.519015
PR26   9696.672954  -5197.434621 -22988.191767   -198.875460
EOF
